[
  {
    "OBJECT_NAME": "STARLINK-1096",
    "OBJECT_ID": "20001AE",
    "EPOCH": "2025-11-11T08:00:03.000384",
    "MEAN_MOTION": 15.98399488,
    "ECCENTRICITY": 0.0006613,
    "INCLINATION": 52.9822,
    "RA_OF_ASC_NODE": 249.719,
    "ARG_OF_PERICENTER": 98.5915,
    "MEAN_ANOMALY": 158.2666,
    "EPHEMERIS_TYPE": 0,
    "CLASSIFICATION_TYPE": "U",
    "NORAD_CAT_ID": 44942,
    "ELEMENT_SET_NO": 999,
    "REV_AT_EPOCH": 592,
    "BSTAR": 0.0010249999999999999,
    "MEAN_MOTION_DOT": 0.00489648,
    "MEAN_MOTION_DDOT": 0.00011268,
    "TLE_LINE1": "1 44942U 20001AE  25315.33336806  .00489648  11268-3  10250-2 0  9994",
    "TLE_LINE2": "2 44942  52.9822 249.7190 0006613  98.5915 158.2666 15.98399488  5922",
    "COMMENT": "Grouped by shell and plane from TLE"
  }
]